{"type": "FeatureCollection", "features": [ {"type": "Feature", "properties": {"norad_id": 57401, "name": "TIANMU-1 09", "group": "weather", "lat": 71.59919573013778, "lon": -107.7810959479644, "alt_km": 472.0716049576249, "timestamp": "2025-12-26T18:39:31.915966+00:00", "meta": {"OBJECT_NAME": "TIANMU-1 09", "OBJECT_ID": "2023-101C", "EPOCH": "2025-12-26T15:03:01.556640", "MEAN_MOTION": 15.2828744, "ECCENTRICITY": 0.00061107, "INCLINATION": 97.2803, "RA_OF_ASC_NODE": 49.4721, "ARG_OF_PERICENTER": 45.4914, "MEAN_ANOMALY": 314.6824, "EPHEMERIS_TYPE": 0, "CLASSIFICATION_TYPE": "U", "NORAD_CAT_ID": 57401, "ELEMENT_SET_NO": 999, "REV_AT_EPOCH": 13527, "BSTAR": 0.00029821077, "MEAN_MOTION_DOT": 8.15e-05, "MEAN_MOTION_DDOT": 0}, "tle": {"line1": "1 57401U 23101C   25360.62710135  .00008150  00000+0  29821-3 0  9993", "line2": "2 57401  97.2803  49.4721 0006110  45.4914 314.6824 15.28287440135277"}}, "geometry": {"type": "Point", "coordinates": [-107.7810959479644, 71.59919573013778]}}, {"type": "Feature", "properties": {"norad_id": 57402, "name": "TIANMU-1 10", "group": "weather", "lat": -78.99601108563948, "lon": 91.64503266497104, "alt_km": 491.2895720695151, "timestamp": "2025-12-26T18:39:31.915976+00:00", "meta": {"OBJECT_NAME": "TIANMU-1 10", "OBJECT_ID": "2023-101D", "EPOCH": "2025-12-26T14:18:06.573024", "MEAN_MOTION": 15.28278722, "ECCENTRICITY": 0.00078333, "INCLINATION": 97.2883, "RA_OF_ASC_NODE": 50.306, "ARG_OF_PERICENTER": 42.6013, "MEAN_ANOMALY": 317.5834, "EPHEMERIS_TYPE": 0, "CLASSIFICATION_TYPE": "U", "NORAD_CAT_ID": 57402, "ELEMENT_SET_NO": 999, "REV_AT_EPOCH": 13526, "BSTAR": 0.0002780445, "MEAN_MOTION_DOT": 7.594e-05, "MEAN_MOTION_DDOT": 0}, "tle": {"line1": "1 57402U 23101D   25360.59590941  .00007594  00000+0  27804-3 0  9991", "line2": "2 57402  97.2883  50.3060 0007833  42.6013 317.5834 15.28278722135260"}}, "geometry": {"type": "Point", "coordinates": [91.64503266497104, -78.99601108563948]}}, {"type": "Feature", "properties": {"norad_id": 57490, "name": "FENGYUN 3F", "group": "weather", "lat": 63.25339475881783, "lon": -93.45532174013981, "alt_km": 818.8802148168861, "timestamp": "2025-12-26T18:39:31.915987+00:00", "meta": {"OBJECT_NAME": "FENGYUN 3F", "OBJECT_ID": "2023-111A", "EPOCH": "2025-12-26T14:44:06.614880", "MEAN_MOTION": 14.19897205, "ECCENTRICITY": 8.614e-05, "INCLINATION": 98.7065, "RA_OF_ASC_NODE": 68.6824, "ARG_OF_PERICENTER": 117.8701, "MEAN_ANOMALY": 242.2563, "EPHEMERIS_TYPE": 0, "CLASSIFICATION_TYPE": "U", "NORAD_CAT_ID": 57490, "ELEMENT_SET_NO": 999, "REV_AT_EPOCH": 12437, "BSTAR": 5.6989476e-05, "MEAN_MOTION_DOT": 7.7e-07, "MEAN_MOTION_DDOT": 0}, "tle": {"line1": "1 57490U 23111A   25360.61396545  .00000077  00000+0  56989-4 0  9992", "line2": "2 57490  98.7065  68.6824 0000861 117.8701 242.2563 14.19897205124373"}}, "geometry": {"type": "Point", "coordinates": [-93.45532174013981, 63.25339475881783]}}, {"type": "Feature", "properties": {"norad_id": 58584, "name": "ARKTIKA-M 2", "group": "weather", "lat": -16.666704448886282, "lon": 164.65694659345226, "alt_km": 5349.140494324935, "timestamp": "2025-12-26T18:39:31.916002+00:00", "meta": {"OBJECT_NAME": "ARKTIKA-M 2", "OBJECT_ID": "2023-198A", "EPOCH": "2025-12-25T18:56:09.299328", "MEAN_MOTION": 2.00602256, "ECCENTRICITY": 0.686608, "INCLINATION": 63.2255, "RA_OF_ASC_NODE": 173.4714, "ARG_OF_PERICENTER": 268.0516, "MEAN_ANOMALY": 18.8422, "EPHEMERIS_TYPE": 0, "CLASSIFICATION_TYPE": "U", "NORAD_CAT_ID": 58584, "ELEMENT_SET_NO": 999, "REV_AT_EPOCH": 1484, "BSTAR": 0, "MEAN_MOTION_DOT": 2.31e-06, "MEAN_MOTION_DDOT": 0}, "tle": {"line1": "1 58584U 23198A   25359.78899652  .00000231  00000+0  00000+0 0  9995", "line2": "2 58584  63.2255 173.4714 6866080 268.0516  18.8422  2.00602256 14849"}}, "geometry": {"type": "Point", "coordinates": [164.65694659345226, -16.666704448886282]}}, {"type": "Feature", "properties": {"norad_id": 58645, "name": "TIANMU-1 11", "group": "weather", "lat": -76.55635890408409, "lon": 52.888343904495024, "alt_km": 494.36160478196416, "timestamp": "2025-12-26T18:39:31.916015+00:00", "meta": {"OBJECT_NAME": "TIANMU-1 11", "OBJECT_ID": "2023-205A", "EPOCH": "2025-12-26T14:16:42.512736", "MEAN_MOTION": 15.24766803, "ECCENTRICITY": 0.00075835, "INCLINATION": 97.36, "RA_OF_ASC_NODE": 19.9749, "ARG_OF_PERICENTER": 250.9389, "MEAN_ANOMALY": 109.1027, "EPHEMERIS_TYPE": 0, "CLASSIFICATION_TYPE": "U", "NORAD_CAT_ID": 58645, "ELEMENT_SET_NO": 999, "REV_AT_EPOCH": 11120, "BSTAR": 0.00027575166, "MEAN_MOTION_DOT": 6.768e-05, "MEAN_MOTION_DDOT": 0}, "tle": {"line1": "1 58645U 23205A   25360.59493649  .00006768  00000+0  27575-3 0  9990", "line2": "2 58645  97.3600  19.9749 0007583 250.9389 109.1027 15.24766803111200"}}, "geometry": {"type": "Point", "coordinates": [52.888343904495024, -76.55635890408409]}}, {"type": "Feature", "properties": {"norad_id": 58646, "name": "TIANMU-1 12", "group": "weather", "lat": 51.72266684671617, "lon": -150.6189144739382, "alt_km": 487.8226805290933, "timestamp": "2025-12-26T18:39:31.916026+00:00", "meta": {"OBJECT_NAME": "TIANMU-1 12", "OBJECT_ID": "2023-205B", "EPOCH": "2025-12-26T14:57:01.087200", "MEAN_MOTION": 15.24654046, "ECCENTRICITY": 0.00060919, "INCLINATION": 97.3588, "RA_OF_ASC_NODE": 19.8032, "ARG_OF_PERICENTER": 228.5191, "MEAN_ANOMALY": 131.5524, "EPHEMERIS_TYPE": 0, "CLASSIFICATION_TYPE": "U", "NORAD_CAT_ID": 58646, "ELEMENT_SET_NO": 999, "REV_AT_EPOCH": 11119, "BSTAR": 0.00027563857, "MEAN_MOTION_DOT": 6.74e-05, "MEAN_MOTION_DDOT": 0}, "tle": {"line1": "1 58646U 23205B   25360.62292925  .00006740  00000+0  27564-3 0  9997", "line2": "2 58646  97.3588  19.8032 0006091 228.5191 131.5524 15.24654046111199"}}, "geometry": {"type": "Point", "coordinates": [-150.6189144739382, 51.72266684671617]}}, {"type": "Feature", "properties": {"norad_id": 58647, "name": "TIANMU-1 13", "group": "weather", "lat": -53.509687591372206, "lon": 30.22807072181974, "alt_km": 499.4885416100042, "timestamp": "2025-12-26T18:39:31.916037+00:00", "meta": {"OBJECT_NAME": "TIANMU-1 13", "OBJECT_ID": "2023-205C", "EPOCH": "2025-12-26T14:10:15.332736", "MEAN_MOTION": 15.2469765, "ECCENTRICITY": 0.00067883, "INCLINATION": 97.3616, "RA_OF_ASC_NODE": 19.9783, "ARG_OF_PERICENTER": 207.2064, "MEAN_ANOMALY": 152.8819, "EPHEMERIS_TYPE": 0, "CLASSIFICATION_TYPE": "U", "NORAD_CAT_ID": 58647, "ELEMENT_SET_NO": 999, "REV_AT_EPOCH": 11118, "BSTAR": 0.00027701833, "MEAN_MOTION_DOT": 6.784e-05, "MEAN_MOTION_DDOT": 0}, "tle": {"line1": "1 58647U 23205C   25360.59045524  .00006784  00000+0  27702-3 0  9997", "line2": "2 58647  97.3616  19.9783 0006788 207.2064 152.8819 15.24697650111182"}}, "geometry": {"type": "Point", "coordinates": [30.22807072181974, -53.509687591372206]}}, {"type": "Feature", "properties": {"norad_id": 58648, "name": "TIANMU-1 14", "group": "weather", "lat": 35.59480348404759, "lon": 14.19281504640075, "alt_km": 494.52198190382023, "timestamp": "2025-12-26T18:39:31.916047+00:00", "meta": {"OBJECT_NAME": "TIANMU-1 14", "OBJECT_ID": "2023-205D", "EPOCH": "2025-12-26T15:21:04.737024", "MEAN_MOTION": 15.2468058, "ECCENTRICITY": 0.0007468, "INCLINATION": 97.3548, "RA_OF_ASC_NODE": 19.3624, "ARG_OF_PERICENTER": 213.1226, "MEAN_ANOMALY": 146.9545, "EPHEMERIS_TYPE": 0, "CLASSIFICATION_TYPE": "U", "NORAD_CAT_ID": 58648, "ELEMENT_SET_NO": 999, "REV_AT_EPOCH": 11119, "BSTAR": 0.00025884192, "MEAN_MOTION_DOT": 6.332e-05, "MEAN_MOTION_DDOT": 0}, "tle": {"line1": "1 58648U 23205D   25360.63963816  .00006332  00000+0  25884-3 0  9994", "line2": "2 58648  97.3548  19.3624 0007468 213.1226 146.9545 15.24680580111192"}}, "geometry": {"type": "Point", "coordinates": [14.19281504640075, 35.59480348404759]}}, {"type": "Feature", "properties": {"norad_id": 58660, "name": "TIANMU-1 19", "group": "weather", "lat": 76.22067905738234, "lon": -36.01983206558395, "alt_km": 474.4365581065549, "timestamp": "2025-12-26T18:39:31.916057+00:00", "meta": {"OBJECT_NAME": "TIANMU-1 19", "OBJECT_ID": "2023-208A", "EPOCH": "2025-12-26T13:30:02.826144", "MEAN_MOTION": 15.28102543, "ECCENTRICITY": 0.00048979, "INCLINATION": 97.4385, "RA_OF_ASC_NODE": 111.5741, "ARG_OF_PERICENTER": 194.9987, "MEAN_ANOMALY": 165.1108, "EPHEMERIS_TYPE": 0, "CLASSIFICATION_TYPE": "U", "NORAD_CAT_ID": 58660, "ELEMENT_SET_NO": 999, "REV_AT_EPOCH": 11093, "BSTAR": 0.00035351509, "MEAN_MOTION_DOT": 9.618e-05, "MEAN_MOTION_DDOT": 0}, "tle": {"line1": "1 58660U 23208A   25360.56253271  .00009618  00000+0  35352-3 0  9991", "line2": "2 58660  97.4385 111.5741 0004897 194.9987 165.1108 15.28102543110935"}}, "geometry": {"type": "Point", "coordinates": [-36.01983206558395, 76.22067905738234]}}, {"type": "Feature", "properties": {"norad_id": 58661, "name": "TIANMU-1 20", "group": "weather", "lat": -55.35974972021892, "lon": -78.64104592021746, "alt_km": 480.78516202185074, "timestamp": "2025-12-26T18:39:31.916067+00:00", "meta": {"OBJECT_NAME": "TIANMU-1 20", "OBJECT_ID": "2023-208B", "EPOCH": "2025-12-26T14:29:21.281856", "MEAN_MOTION": 15.29294696, "ECCENTRICITY": 0.00069207, "INCLINATION": 97.4322, "RA_OF_ASC_NODE": 112.0766, "ARG_OF_PERICENTER": 209.1488, "MEAN_ANOMALY": 150.9367, "EPHEMERIS_TYPE": 0, "CLASSIFICATION_TYPE": "U", "NORAD_CAT_ID": 58661, "ELEMENT_SET_NO": 999, "REV_AT_EPOCH": 11101, "BSTAR": 0.00038847181, "MEAN_MOTION_DOT": 0.00010975, "MEAN_MOTION_DDOT": 0}, "tle": {"line1": "1 58661U 23208B   25360.60371854  .00010975  00000+0  38847-3 0  9995", "line2": "2 58661  97.4322 112.0766 0006920 209.1488 150.9367 15.29294696111015"}}, "geometry": {"type": "Point", "coordinates": [-78.64104592021746, -55.35974972021892]}}]}